ONEWEB-0273             
1 48991U 21060AA  23313.79666734 -.00000009  00000+0 -55957-4 0  9995
2 48991  87.9087  57.9272 0001407 100.0453 260.0836 13.16594185114531
ONEWEB-0274             
1 48992U 21060AB  23313.82199605 -.00000050  00000+0 -16400-3 0  9993
2 48992  87.9088  57.9259 0001932  82.9339 277.2012 13.16594813114570
ONEWEB-0275             
1 48993U 21060AC  23313.81143891 -.00000539  00000+0 -14444-2 0  9996
2 48993  87.9077  57.9269 0001521 101.4171 258.7130 13.16593494114507
ONEWEB-0276             
1 48994U 21060AD  23313.84522258  .00000000  00000+0 -33840-4 0  9993
2 48994  87.9086  57.9110 0001243  99.7318 260.3953 13.16594222114520
ONEWEB-0277             
1 48995U 21060AE  23313.85788641 -.00000169  00000+0 -47464-3 0  9998
2 48995  87.9083  57.9480 0001148  85.3922 274.7340 13.16594270114515
ONEWEB-0278             
1 48996U 21060AF  23313.84732845 -.00000233  00000+0 -64227-3 0  9991
2 48996  87.9088  57.9071 0001777 113.2512 246.8806 13.16593938114642
ONEWEB-0279             
1 48997U 21060AG  23313.77977309 -.00000019  00000+0 -83875-4 0  9993
2 48997  87.9086  57.9184 0001632  99.9617 260.1698 13.16592823114563
ONEWEB-0280             
1 48998U 21060AH  23313.79456594 -.00000020  00000+0 -86623-4 0  9990
2 48998  87.9086  57.9153 0001191  74.6545 285.4717 13.16594346114508
